STARLINK-5986           
1 56452U 23064E   26068.63086536  .00000127  00000+0  18456-4 0  9993
2 56452  70.0005 144.7536 0003076 269.7649  90.3157 14.98329662155236
LEMUR-2-DELOITTE-1      
1 63259U 25052BB  26068.93956839  .00005004  00000+0  44206-3 0  9990
2 63259  97.7035 323.2090 0003011  78.3841 281.7719 14.96797120 53844
